#dP2024  2  4 18  0  0.00000000      96 __u+U IGS20 EXT  IAC
## 2300  64800.00000000   900.00000000 60344 0.7500000000000
+  119   C06C07C08C09C10C11C12C13C14C16C19C20C21C22C23C24C25
+        C26C27C28C29C30C32C33C34C35C36C37C38C39C40C41C42C43
+        C44C45C46E02E03E04E05E07E08E09E10E11E12E13E14E15E18
+        E19E21E24E25E26E27E30E31E33E34E36G01G02G03G04G05G06
+        G07G08G09G10G11G12G13G14G15G16G17G18G19G20G21G22G23
+        G24G25G26G27G28G29G30G31G32J02J04R01R02R03R04R05R07
+        R08R09R11R12R13R14R15R16R17R18R19R20R21R22R24R25R26
++        11 10  8 11 10 14 12  9  8 11  9  7  9  7  8  9  9
++         8  7  7  7  8 10  9  9  8  7  7 11 11  8 10 10  8
++         7  9  8  7 10 10 10 10  9 10  7  8  7  8  9  7  8
++         8  9  7  7  8  7  7  7  8  7  8  7  7  7 10  9  7
++         7  8  8  7  7  6  8  7  8  7  7  8  7  8  6  8  8
++         7  7  7  8  8  6  7  8  7 10  9  7  8  7  8  9  6
++         8  8  8  7  9  8  7  8  9  7  7  8  7  8 10  7  8
%c M  cc GPS ccc cccc cccc cccc cccc ccccc ccccc ccccc ccccc
%c cc cc ccc ccc cccc cccc cccc cccc ccccc ccccc ccccc ccccc
%f  0.0000000  0.000000000  0.00000000000  0.000000000000000
%f  0.0000000  0.000000000  0.00000000000  0.000000000000000
%i    0    0    0    0      0      0      0      0         0
%i    0    0    0    0      0      0      0      0         0
/* IAC                                ULTRA-RAPID PREDICTION
/* S/V CLOCKS ARE ALIGNED TO GNSS TIME                      
/* G:C1WC2W R:C1PC2P E:C1XC5X C:C2IC6I J:C1CC2S             
/* PCV:IGS20_2290 OL/AL:FES2004  NONE     YN ORB:CoN CLK:CoN
*  2024 02 04 20 45  0.00000000
PC06  -6369.825195  39590.706315  13542.773275     89.569970
PC07  -7852.845547  26397.524503 -31831.446992   -748.906331
PC08 -19922.474432  30120.181839  21573.335648     62.739234
PC09  -1712.524191  42234.827523   4833.087230   -445.924719
PC10    -68.116487  27957.254915 -31152.591108     98.331124
PC11   8483.628467 -16329.703862  21051.956369    393.726672
PC12  17195.917389   3676.618790  21711.295121    777.974723
PC13 -11021.210861  30122.176343  27373.673416    414.370194
PC14  17507.426106 -10960.038292 -18722.018500    118.015189
PC16  -7311.884293  38814.881659  15477.893203   -320.836619
PC19  -7636.654083  14537.333744  22594.185293   -930.063289
PC20 -23648.031215   6543.759937  13334.558601   -131.347745
PC21  26738.639620   6234.241522   4944.688826   -962.809196
PC22  13694.970198  14659.363259  19389.554821   -121.855496
PC23  -2425.443520 -20184.704724  19113.975193   -783.648605
PC24  20927.842868 -14107.616754 -11959.143523    854.341136
PC25  12087.443943 -24544.825326   5538.465034    318.325692
PC26  16984.236382   3231.301163 -21933.213762   -244.563508
PC27 -18331.222658 -12589.582422 -16867.684469    266.559195
PC28 -12796.770916 -24646.483531  -2724.845594    202.595645
PC29  -1131.420028  23037.450251 -15716.223202    237.421772
PC30 -14545.939237   6760.174410 -22841.506975    -21.554080
PC32 -26786.902914  -6045.531031  -4984.236495   -562.875534
PC33   7624.481741 -14577.015011 -22532.400443   -946.536084
PC34  13795.119080  -8343.939067  22765.628816    362.228305
PC35  13683.688668  24203.213654   2630.400190    441.238665
PC36 -13016.607475  24156.236966  -5031.394923    -26.840290
PC37 -16605.651753  -4155.685502  22036.159104   -934.391556
PC38 -24730.157503  31257.117901  13588.363299    134.781250
PC39  -9541.668332  35044.533549  21651.733674     -6.985866
PC40 -12579.184863  19911.691256 -34983.210084    -55.075627
PC41 -12967.848388 -14794.631139 -19738.678660   -886.701991
PC42  24561.295680  -5612.474806 -11925.488734   -457.702887
PC43   1961.512783 -22552.961087  16292.019638     59.142639
PC44  18892.059081  12063.577581  16631.739229    374.693145
PC45   2563.190205  19945.653894 -19348.122077    -67.978595
PC46 -20770.623016  14863.588791  11179.610687   -121.209777
PE02 -17399.094393  18008.391856 -15778.405975    100.731124
PE03  -6038.012742  16543.579467  23787.363218    -91.655561
PE04 -13278.468105 -22876.533234 -13276.296176   -319.714304
PE05 -21550.585905    667.064319  20283.075979   4716.936954
PE07  24487.233975  16003.819756  -4496.012805   -102.059099
PE08  12740.671490  22817.095259  13894.339011   -218.788487
PE09 -24458.230870 -16090.400812   4403.935846   -324.389933
PE10  -8457.571035 -21589.272880 -18399.228603   -599.448766
PE11 -13598.984670 -11468.149471 -23658.099477   3262.704502
PE12  -2630.740961 -27360.829127 -10951.026987   -892.403743
PE13  13268.031328  12217.233903  23482.119482    -20.091699
PE14  19398.024595   2412.909315  13184.078724     30.162072
PE15   2278.643257  27597.779182  10485.103192    -83.994220
PE18 -26734.676388  -4362.283294 -17678.416752    289.639500
PE19   8192.899321 -14918.377939 -24209.456720   -678.011017
PE21  28018.617866  -9475.088026  -1286.198978   -577.367417
PE24 -22438.565246  -5404.065063  18496.190973   -580.249266
PE25 -28071.235056   9224.672121   1652.898442      0.439887
PE26  16420.021276 -10721.471346  22180.277657    359.334233
PE27  22745.693664   5005.404297 -18284.097638   -266.585074
PE30   3839.809986  16524.261886 -24272.831677   -880.553052
PE31  -4109.197776 -16377.322737  24311.111157    -15.275856
PE33  10190.120341 -26294.561370   9003.948462      7.076622
PE34  -9843.025110  26599.111378  -8467.897197    -92.829210
PE36 -16326.295784  10072.565860 -22538.689522   -181.418511
PG01  12161.174089 -19063.484909  13325.272232    168.306124
PG02  14172.990072 -12059.629098  19355.890874   -490.474274
PG03  23188.900595 -12115.955898  -4341.410716    172.151166
PG04  15043.756072  -6263.862279 -20984.345414    283.576997
PG05 -24901.410620   5098.208751  -8032.476475   -160.574135
PG06  -6958.575236 -20326.140499 -15472.570818    419.601961
PG07   5103.807478 -25711.448046  -1638.700033    -54.139331
PG08  20875.030243   1006.939954  16540.096441   -165.464769
PG09   2779.955947 -16303.254045 -20853.888750     81.348062
PG10   5554.560703  13761.054142  22233.262150    -72.030473
PG11 -12927.872406  -9636.701561 -21088.887826   -564.618837
PG12 -23996.682145  10593.126756  -4211.614762   -474.774211
PG13 -21253.325944 -11420.790304  11147.649690    622.488207
PG14  -1170.164784 -15872.263077  21265.433753    317.134513
PG15 -20992.667457   1356.203531  15845.014053    124.328005
PG16  23447.869619   2537.818123 -12990.083565   -369.706702
PG17  -8939.131431 -20952.896620  13954.607888    717.970768
PG18  -5024.057335  25962.417981   -881.415868   -548.292705
PG19 -16239.667999 -20668.661766   4791.408715    436.133994
PG20 -18705.905217  -3878.195779 -18322.517466    388.724620
PG21  15226.272296  -5713.919314  21299.920519    136.079386
PG22  -8894.915659 -13160.689357  21679.472286     36.599921
PG23  -8169.175995  17078.534786  18571.749853    149.347761
PG24 -14712.188064  10197.373244  19083.980486   -426.244353
PG25 -16003.447550  16701.335908 -13142.750134    487.563047
PG26  16234.526119   8316.117431 -19565.071665    193.589231
PG27  22834.322324  12244.534359   6522.914533     -1.104602
PG28   6524.753850  22239.806059 -12996.647532   -120.339231
PG29  -5393.820908  14856.406074 -21378.235377   -607.578142
PG30  -2270.315531 -25046.164639   8235.633085   -436.782625
PG31  11451.844272  14221.184221 -19356.688729   -227.655421
PG32  13318.408458  20324.884278  11163.671421   -609.754529
PJ02 -35878.080898  17238.803887  -9275.802891     -1.706734
PJ04 -25067.814143  29364.095447  23108.616182     79.202731
PR01  24417.636995   3221.376569  -6616.221660     76.315771
PR02  14421.148699  -5483.073309 -20287.244973    -22.448752
PR03  -3766.433719 -11959.113119 -22153.256551     93.916363
PR04 -19325.024059 -11636.154012 -11859.578362    222.029185
PR05 -24487.018689  -5194.444235   4849.258080    126.409369
PR07   4770.936920  12167.608725  21959.664057     75.099285
PR08  19532.497580  11548.554279  11752.197258    -74.293282
PR09 -18028.337535  18104.701381    226.536403    168.191180
PR11   5815.990347   9548.446609 -22923.023349     35.405137
PR12  18268.119748  -6579.035581 -16535.451257     36.386902
PR13  18941.325095 -16887.810669  -2642.218021    -44.029000
PR14   7827.484350 -18412.916867  15816.553527     26.013847
PR15  -7075.891760  -8551.231728  22977.575965     82.488242
PR16 -18061.294955   6514.633724  16812.124864     23.025275
PR17  -3065.160619 -24663.799187   5831.459108     58.476210
PR18  -9624.240504 -21040.137337 -10658.702238    125.716905
PR19 -11271.191380  -8728.398629 -21147.808874   -264.596252
PR20  -6652.219726  13734.918247 -20441.799576   -107.794792
PR21   3050.417302  24708.566328  -5504.506173    -74.404130
PR22   9568.841823  20645.759715  11573.990681    106.512971
PR24   6269.203080 -14567.620937  20002.033401    -42.615448
PR25   2029.903972  24782.445985  -5648.565207     83.534770
PR26  18972.225199  11600.736930  12500.223930   -199.988940
EOF
